{"type": "FeatureCollection", "features": [ {"type": "Feature", "properties": {"norad_id": 66708, "name": "FLOCK 4H-5", "group": "last-30-days", "lat": -5.576282061012428, "lon": 73.42973364885721, "alt_km": 515.5890310771383, "timestamp": "2025-12-27T03:58:42.931315+00:00", "meta": {"OBJECT_NAME": "FLOCK 4H-5", "OBJECT_ID": "2025-276AU", "EPOCH": "2025-12-26T16:55:50.295072", "MEAN_MOTION": 15.18214298, "ECCENTRICITY": 0.0001308, "INCLINATION": 97.4376, "RA_OF_ASC_NODE": 72.2464, "ARG_OF_PERICENTER": 126.7374, "MEAN_ANOMALY": 233.3981, "EPHEMERIS_TYPE": 0, "CLASSIFICATION_TYPE": "U", "NORAD_CAT_ID": 66708, "ELEMENT_SET_NO": 999, "REV_AT_EPOCH": 424, "BSTAR": 0.00035266, "MEAN_MOTION_DOT": 7.149e-05, "MEAN_MOTION_DDOT": 0}, "tle": {"line1": "1 66708U 25276AU  25360.70544323  .00007149  00000+0  35266-3 0  9998", "line2": "2 66708  97.4376  72.2464 0001308 126.7374 233.3981 15.18214298  4242"}}, "geometry": {"type": "Point", "coordinates": [73.42973364885721, -5.576282061012428]}}, {"type": "Feature", "properties": {"norad_id": 66709, "name": "FLOCK 4H-6", "group": "last-30-days", "lat": -29.199882245116857, "lon": 76.89939338246243, "alt_km": 519.4872721100846, "timestamp": "2025-12-27T03:58:42.931324+00:00", "meta": {"OBJECT_NAME": "FLOCK 4H-6", "OBJECT_ID": "2025-276AV", "EPOCH": "2025-12-26T17:02:01.466016", "MEAN_MOTION": 15.179636, "ECCENTRICITY": 0.0002938, "INCLINATION": 97.4425, "RA_OF_ASC_NODE": 72.2613, "ARG_OF_PERICENTER": 192.6642, "MEAN_ANOMALY": 167.4519, "EPHEMERIS_TYPE": 0, "CLASSIFICATION_TYPE": "U", "NORAD_CAT_ID": 66709, "ELEMENT_SET_NO": 999, "REV_AT_EPOCH": 424, "BSTAR": 0.00048971, "MEAN_MOTION_DOT": 9.886e-05, "MEAN_MOTION_DDOT": 0}, "tle": {"line1": "1 66709U 25276AV  25360.70973919  .00009886  00000+0  48971-3 0  9993", "line2": "2 66709  97.4425  72.2613 0002938 192.6642 167.4519 15.17963600  4245"}}, "geometry": {"type": "Point", "coordinates": [76.89939338246243, -29.199882245116857]}}, {"type": "Feature", "properties": {"norad_id": 66710, "name": "FLOCK 4H-7", "group": "last-30-days", "lat": -74.37413280878121, "lon": 100.51427952058361, "alt_km": 519.9768981907182, "timestamp": "2025-12-27T03:58:42.931335+00:00", "meta": {"OBJECT_NAME": "FLOCK 4H-7", "OBJECT_ID": "2025-276AW", "EPOCH": "2025-12-26T18:49:08.069088", "MEAN_MOTION": 15.1753346, "ECCENTRICITY": 0.0001026, "INCLINATION": 97.4383, "RA_OF_ASC_NODE": 72.2923, "ARG_OF_PERICENTER": 260.3615, "MEAN_ANOMALY": 99.7502, "EPHEMERIS_TYPE": 0, "CLASSIFICATION_TYPE": "U", "NORAD_CAT_ID": 66710, "ELEMENT_SET_NO": 999, "REV_AT_EPOCH": 425, "BSTAR": 0.00029509, "MEAN_MOTION_DOT": 5.854e-05, "MEAN_MOTION_DDOT": 0}, "tle": {"line1": "1 66710U 25276AW  25360.78412117  .00005854  00000+0  29509-3 0  9998", "line2": "2 66710  97.4383  72.2923 0001026 260.3615  99.7502 15.17533460  4251"}}, "geometry": {"type": "Point", "coordinates": [100.51427952058361, -74.37413280878121]}}, {"type": "Feature", "properties": {"norad_id": 66711, "name": "FLOCK 4H-8", "group": "last-30-days", "lat": -75.44977736761987, "lon": 102.93057625934301, "alt_km": 519.374386193932, "timestamp": "2025-12-27T03:58:42.931344+00:00", "meta": {"OBJECT_NAME": "FLOCK 4H-8", "OBJECT_ID": "2025-276AX", "EPOCH": "2025-12-26T20:00:01.999008", "MEAN_MOTION": 15.17569766, "ECCENTRICITY": 0.0002394, "INCLINATION": 97.4424, "RA_OF_ASC_NODE": 72.3629, "ARG_OF_PERICENTER": 243.2858, "MEAN_ANOMALY": 24.3533, "EPHEMERIS_TYPE": 0, "CLASSIFICATION_TYPE": "U", "NORAD_CAT_ID": 66711, "ELEMENT_SET_NO": 999, "REV_AT_EPOCH": 226, "BSTAR": -0.002427, "MEAN_MOTION_DOT": -0.00048451, "MEAN_MOTION_DDOT": 0}, "tle": {"line1": "1 66711U 25276AX  25360.83335647 -.00048451  00000+0 -24270-2 0  9998", "line2": "2 66711  97.4424  72.3629 0002394 243.2858  24.3533 15.17569766  2265"}}, "geometry": {"type": "Point", "coordinates": [102.93057625934301, -75.44977736761987]}}, {"type": "Feature", "properties": {"norad_id": 66712, "name": "FLOCK 4H-9", "group": "last-30-days", "lat": -33.65308357958879, "lon": 77.69719763283618, "alt_km": 523.6960663942991, "timestamp": "2025-12-27T03:58:42.931354+00:00", "meta": {"OBJECT_NAME": "FLOCK 4H-9", "OBJECT_ID": "2025-276AY", "EPOCH": "2025-12-26T20:12:36.837792", "MEAN_MOTION": 15.1669586, "ECCENTRICITY": 0.0002608, "INCLINATION": 97.4416, "RA_OF_ASC_NODE": 72.3877, "ARG_OF_PERICENTER": 221.9288, "MEAN_ANOMALY": 138.1745, "EPHEMERIS_TYPE": 0, "CLASSIFICATION_TYPE": "U", "NORAD_CAT_ID": 66712, "ELEMENT_SET_NO": 999, "REV_AT_EPOCH": 426, "BSTAR": -0.028846, "MEAN_MOTION_DOT": -0.00531174, "MEAN_MOTION_DDOT": 0}, "tle": {"line1": "1 66712U 25276AY  25360.84209303 -.00531174  00000+0 -28846-1 0  9990", "line2": "2 66712  97.4416  72.3877 0002608 221.9288 138.1745 15.16695860  4265"}}, "geometry": {"type": "Point", "coordinates": [77.69719763283618, -33.65308357958879]}}, {"type": "Feature", "properties": {"norad_id": 66713, "name": "FLOCK 4H-10", "group": "last-30-days", "lat": -78.9936389441815, "lon": -149.54109360486092, "alt_km": 518.951787922746, "timestamp": "2025-12-27T03:58:42.931365+00:00", "meta": {"OBJECT_NAME": "FLOCK 4H-10", "OBJECT_ID": "2025-276AZ", "EPOCH": "2025-12-26T12:34:59.787840", "MEAN_MOTION": 15.17328102, "ECCENTRICITY": 0.00036818, "INCLINATION": 97.439, "RA_OF_ASC_NODE": 72.0345, "ARG_OF_PERICENTER": 238.4407, "MEAN_ANOMALY": 121.6468, "EPHEMERIS_TYPE": 0, "CLASSIFICATION_TYPE": "U", "NORAD_CAT_ID": 66713, "ELEMENT_SET_NO": 999, "REV_AT_EPOCH": 421, "BSTAR": 0.00048633669, "MEAN_MOTION_DOT": 9.64e-05, "MEAN_MOTION_DDOT": 0}, "tle": {"line1": "1 66713U 25276AZ  25360.52430310  .00009640  00000+0  48634-3 0  9995", "line2": "2 66713  97.4390  72.0345 0003681 238.4407 121.6468 15.17328102  4219"}}, "geometry": {"type": "Point", "coordinates": [-149.54109360486092, -78.9936389441815]}}, {"type": "Feature", "properties": {"norad_id": 66714, "name": "FLOCK 4H-11", "group": "last-30-days", "lat": -60.42640549377391, "lon": 86.00685241212695, "alt_km": 518.4112296002131, "timestamp": "2025-12-27T03:58:42.931375+00:00", "meta": {"OBJECT_NAME": "FLOCK 4H-11", "OBJECT_ID": "2025-276BA", "EPOCH": "2025-12-26T17:10:23.265120", "MEAN_MOTION": 15.17880164, "ECCENTRICITY": 0.0002071, "INCLINATION": 97.4407, "RA_OF_ASC_NODE": 72.2493, "ARG_OF_PERICENTER": 254.0897, "MEAN_ANOMALY": 106.0109, "EPHEMERIS_TYPE": 0, "CLASSIFICATION_TYPE": "U", "NORAD_CAT_ID": 66714, "ELEMENT_SET_NO": 999, "REV_AT_EPOCH": 424, "BSTAR": 0.00056325, "MEAN_MOTION_DOT": 0.00011355, "MEAN_MOTION_DDOT": 0}, "tle": {"line1": "1 66714U 25276BA  25360.71554705  .00011355  00000+0  56325-3 0  9994", "line2": "2 66714  97.4407  72.2493 0002071 254.0897 106.0109 15.17880164  4247"}}, "geometry": {"type": "Point", "coordinates": [86.00685241212695, -60.42640549377391]}}, {"type": "Feature", "properties": {"norad_id": 66715, "name": "FLOCK 4H-12", "group": "last-30-days", "lat": -18.788775825220814, "lon": 75.2398867697864, "alt_km": 525.5719747961302, "timestamp": "2025-12-27T03:58:42.931384+00:00", "meta": {"OBJECT_NAME": "FLOCK 4H-12", "OBJECT_ID": "2025-276BB", "EPOCH": "2025-12-26T18:33:47.369088", "MEAN_MOTION": 15.17218053, "ECCENTRICITY": 0.0006511, "INCLINATION": 97.4384, "RA_OF_ASC_NODE": 72.3074, "ARG_OF_PERICENTER": 170.7271, "MEAN_ANOMALY": 189.4084, "EPHEMERIS_TYPE": 0, "CLASSIFICATION_TYPE": "U", "NORAD_CAT_ID": 66715, "ELEMENT_SET_NO": 999, "REV_AT_EPOCH": 456, "BSTAR": -0.036936, "MEAN_MOTION_DOT": -0.00686834, "MEAN_MOTION_DDOT": 0}, "tle": {"line1": "1 66715U 25276BB  25360.77346492 -.00686834  00000+0 -36936-1 0  9999", "line2": "2 66715  97.4384  72.3074 0006511 170.7271 189.4084 15.17218053  4565"}}, "geometry": {"type": "Point", "coordinates": [75.2398867697864, -18.788775825220814]}}, {"type": "Feature", "properties": {"norad_id": 66716, "name": "FLOCK 4H-13", "group": "last-30-days", "lat": -3.2247335581996803, "lon": 73.13481128244125, "alt_km": 515.7116860868446, "timestamp": "2025-12-27T03:58:42.931393+00:00", "meta": {"OBJECT_NAME": "FLOCK 4H-13", "OBJECT_ID": "2025-276BC", "EPOCH": "2025-12-26T16:55:15.219264", "MEAN_MOTION": 15.18354992, "ECCENTRICITY": 0.0001708, "INCLINATION": 97.4409, "RA_OF_ASC_NODE": 72.2597, "ARG_OF_PERICENTER": 192.228, "MEAN_ANOMALY": 167.8913, "EPHEMERIS_TYPE": 0, "CLASSIFICATION_TYPE": "U", "NORAD_CAT_ID": 66716, "ELEMENT_SET_NO": 999, "REV_AT_EPOCH": 424, "BSTAR": -0.0046776, "MEAN_MOTION_DOT": -0.00094837, "MEAN_MOTION_DDOT": 0}, "tle": {"line1": "1 66716U 25276BC  25360.70503726 -.00094837  00000+0 -46776-2 0  9998", "line2": "2 66716  97.4409  72.2597 0001708 192.2280 167.8913 15.18354992  4245"}}, "geometry": {"type": "Point", "coordinates": [73.13481128244125, -3.2247335581996803]}}, {"type": "Feature", "properties": {"norad_id": 66717, "name": "FLOCK 4H-14", "group": "last-30-days", "lat": 9.70148397043679, "lon": 71.43605256693938, "alt_km": 512.9667785179408, "timestamp": "2025-12-27T03:58:42.931402+00:00", "meta": {"OBJECT_NAME": "FLOCK 4H-14", "OBJECT_ID": "2025-276BD", "EPOCH": "2025-12-26T15:16:57.575136", "MEAN_MOTION": 15.18396708, "ECCENTRICITY": 0.0001777, "INCLINATION": 97.4407, "RA_OF_ASC_NODE": 72.1959, "ARG_OF_PERICENTER": 129.3522, "MEAN_ANOMALY": 230.7869, "EPHEMERIS_TYPE": 0, "CLASSIFICATION_TYPE": "U", "NORAD_CAT_ID": 66717, "ELEMENT_SET_NO": 999, "REV_AT_EPOCH": 348, "BSTAR": 0.00034777, "MEAN_MOTION_DOT": 7.087e-05, "MEAN_MOTION_DDOT": 0}, "tle": {"line1": "1 66717U 25276BD  25360.63677749  .00007087  00000+0  34777-3 0  9996", "line2": "2 66717  97.4407  72.1959 0001777 129.3522 230.7869 15.18396708  3487"}}, "geometry": {"type": "Point", "coordinates": [71.43605256693938, 9.70148397043679]}}]}